FUNCUBE-1 (AO-73)       
1 39444U 13066AE  24178.93645302  .00007393  00000+0  71292-3 0  9999
2 39444  97.7198 137.8348 0049778 108.0482 252.6169 14.92241333572152
UWE-3                   
1 39446U 13066AG  24178.74453855  .00004561  00000+0  50893-3 0  9998
2 39446  97.7813 128.2804 0060066 186.3950 173.6505 14.86193674570129
BRITE-CA1 (TORONTO)     
1 40020U 14033L   24178.96243507  .00001467  00000+0  24253-3 0  9991
2 40020  97.8790 315.7411 0084192  61.4763 299.4888 14.69488110536410
DUCHIFAT-1              
1 40021U 14033M   24178.85222219  .00015763  00000+0  10386-2 0  9992
2 40021  98.0898 163.1816 0014644  72.4225 287.8599 15.07514679545588
NANOSATC-BR1            
1 40024U 14033Q   24178.19295158  .00009955  00000+0  73323-3 0  9991
2 40024  98.0652 150.6698 0008109 129.4667 230.7275 15.03532556544600
QB50P1                  
1 40025U 14033R   24178.75737239  .00007738  00000+0  62785-3 0  9992
2 40025  98.0383 139.8268 0013454 127.7787 232.4656 14.99881036544311
QB50P2                  
1 40032U 14033Y   24178.40051520  .00006748  00000+0  56731-3 0  9998
2 40032  98.0058 131.0940 0011042 122.8701 237.3585 14.98580989544050
PERSEUS-M2              
1 40037U 14033AD  24178.35763394  .00002664  00000+0  27813-3 0  9998
2 40037  97.9269 109.1805 0013673 158.5293 201.6501 14.90527405543199
PERSEUS-M1              
1 40039U 14033AF  24178.65281072  .00002279  00000+0  24001-3 0  9999
2 40039  97.9069 105.5056 0013489 156.9626 203.2199 14.90307484543097
POLYITAN-1              
1 40042U 14033AJ  24178.80891824  .00011077  00000+0  83150-3 0  9998
2 40042  98.0688 143.4889 0015485  99.4728 260.8247 15.02713630544280
TIGRISAT                
1 40043U 14033AK  24178.67847250  .00002643  00000+0  35615-3 0  9990
2 40043  97.6966 340.9982 0053896 272.6393  86.8650 14.78986313538867
AEROCUBE 6A             
1 40045U 14033AM  24179.04121058  .00006528  00000+0  78096-3 0  9991
2 40045  97.6709 352.1312 0049186 248.4616 111.1352 14.83605166539493
AEROCUBE 6B             
1 40046U 14033AN  24178.93635545  .00006455  00000+0  75688-3 0  9993
2 40046  97.6673 350.7437 0047866 244.0833 115.5445 14.84479133539677
UKUBE-1                 
1 40074U 14037F   24178.71324228  .00007658  00000+0  72360-3 0  9997
2 40074  98.3428 109.2227 0005599  55.8509 304.3239 14.94004343540201
BRITE-PL2 (HEWELIUSZ)   
1 40119U 14049B   24178.69315205  .00003048  00000+0  32983-3 0  9998
2 40119  97.8835 278.3167 0015028 337.7391  22.3172 14.88946513533995
CP10 (EXOCUBE)          
1 40380U 15003E   24179.03137635  .01703644  26298-2  13139-2 0  9998
2 40380  99.0790 209.9513 0006277 105.9725 254.2248 16.15592050521033
AEROCUBE 5C             
1 40965U 15058B   24178.90950590  .00002639  00000+0  25155-3 0  9992
2 40965  64.7712 331.7995 0191001 305.1782  53.1564 14.82903925258471
AEROCUBE 7              
1 40966U 15058C   24178.50765457  .00003393  00000+0  30793-3 0  9997
2 40966  64.7687 326.7148 0185819 304.9224  53.4546 14.84802525258496
FOX-1A (AO-85)          
1 40967U 15058D   24178.90653510  .00002659  00000+0  25794-3 0  9997
2 40967  64.7787 345.7057 0190362 300.9769  57.2756 14.82302950  6432
SINOD-D 1               
1 40968U 15058E   24178.93264820  .00003561  00000+0  32737-3 0  9991
2 40968  64.7788 338.3010 0185127 299.9593  58.3248 14.84315508  9263
SNAP-3 ALICE            
1 40970U 15058G   24178.45612083  .00011883  00000+0  82408-3 0  9995
2 40970  64.7717 296.5006 0155914 298.0659  60.4764 14.96539177  7170
LMRST-SAT               
1 40971U 15058H   24177.86969529  .00002162  00000+0  21262-3 0  9991
2 40971  64.7776 344.4165 0191414 302.6843  55.5928 14.82236171  6288
SNAP-3 EDDIE            
1 40972U 15058J   24178.46407054  .00011582  00000+0  79411-3 0  9994
2 40972  64.7696 289.8686 0156462 299.0207  59.5305 14.96896432  9279
PROPCUBE 3              
1 40973U 15058K   24177.81722076  .00002744  00000+0  25567-3 0  9990
2 40973  64.7724 332.3180 0187833 304.0311  54.3081 14.84051574  7318
BISONSAT                
1 40974U 15058L   24178.69584568  .00007953  00000+0  61421-3 0  9996
2 40974  64.7693 303.6392 0169523 301.4609  57.0027 14.91449639  7183
SNAP-3 JIMI             
1 40975U 15058M   24177.81918522  .00004145  00000+0  35551-3 0  9996
2 40975  64.7708 320.2483 0180024 303.0065  55.3855 14.87219562  6319
PROPCUBE 1 (FLORA)      
1 40976U 15058N   24177.87073933  .00002101  00000+0  21480-3 0  9997
2 40976  64.7767 359.8849 0189351 303.9187  54.4038 14.81108851  9087
SINOD-D 3               
1 40977U 15058P   24177.98349593  .00002799  00000+0  27042-3 0  9991
2 40977  64.7759 352.7663 0184043 303.0396  55.3147 14.83103177  7336
VELOX-II                
1 41171U 15077F   24175.74681636  .00246427  00000+0  13108-2 0  9993
2 41171  14.9856 359.9398 0002616  54.6251 305.4323 15.78366361472822
HORYU-4                 
1 41340U 16012D   24176.44427344  .00010505  00000+0  51763-3 0  9999
2 41340  31.0036 288.3044 0010064  49.0299 311.1211 15.16628567459252
RAVAN                   
1 41849U 16067B   24178.56062554  .00010488  00000+0  57488-3 0  9996
2 41849  98.0652 356.8009 0012714   2.5169 357.6123 15.14331629417405
CELTEE 1                
1 41850U 16067C   24178.99544866  .00006407  00000+0  43563-3 0  9991
2 41850  98.1043 348.9972 0002101 125.1974 234.9449 15.06718099416901
OPTICUBE 04             
1 41851U 16067D   24178.94096029  .00004081  00000+0  30859-3 0  9990
2 41851  98.0776 344.2854 0018218  25.7218 334.4908 15.02834057416707
AEROCUBE 8D             
1 41852U 16067E   24178.44606066  .00006581  00000+0  43258-3 0  9998
2 41852  98.1082 348.1950 0006106  82.2437 277.9483 15.07950762416798
AEROCUBE 8C             
1 41853U 16067F   24178.52623856  .00007761  00000+0  50968-3 0  9991
2 41853  98.0901 346.8352 0007880  18.3952 341.7558 15.07910601416792
PROMETHEUS 2-1          
1 41854U 16067G   24177.93315407  .00016168  00000+0  81240-3 0  9994
2 41854  98.1003 353.7078 0012437  32.3839 327.8153 15.17296585417069
PROMETHEUS 2-3          
1 41855U 16067H   24178.45720347  .00015859  00000+0  79771-3 0  9998
2 41855  98.0934 353.7471 0010724  41.1235 319.0802 15.17281664417149
DIDO-2                  
1 42000U 17008BE  24179.09823947  .00505256  11098-3  10742-2 0  9998
2 42000  97.1287 241.5752 0004712 210.1754 149.9253 15.98698609410382
AALTO-1                 
1 42775U 17036L   24179.03765331  .00118381  00000+0  95930-3 0  9993
2 42775  97.1006 208.8113 0008008 152.6002 207.5685 15.70367991390659
URSA MAIOR              
1 42776U 17036M   24178.50907969  .01368535  13319-2  12902-2 0  9996
2 42776  97.0925 213.4765 0010526 212.9959 147.0671 16.12253872390903
CORVUS BC2              
1 42846U 17042X   24178.47555322  .00003943  00000+0  33997-3 0  9995
2 42846  97.3757   3.0604 0009288  38.5646 321.6239 14.97807382378830
CORVUS BC1              
1 42847U 17042Y   24178.56926538  .00003792  00000+0  32594-3 0  9991
2 42847  97.3727   3.5535 0008391  32.1108 328.0625 14.97952351378863
MIRATA                  
1 43015U 17073C   24178.23081922  .00018615  00000+0  87253-3 0  9998
2 43015  97.5939  62.8717 0167407 229.6432 129.0077 15.08087045357695
MAKERSAT 0              
1 43016U 17073D   24179.17390279  .00009436  00000+0  53658-3 0  9994
2 43016  97.5790  57.8855 0193448 248.6802 109.3674 14.98545843357400
GOMX-4B                 
1 43196U 18015E   24178.88915936  .00071317  00000+0  72413-3 0  9997
2 43196  97.6065 353.2563 0006848 264.3734  95.6744 15.64954393357043
GOMX-4A                 
1 43197U 18015F   24179.17865705  .00154695  00000+0  86618-3 0  9992
2 43197  97.5961 358.8894 0006843 244.9427 115.1129 15.78863408357455
CICERO 10               
1 43690U 18088A   24179.03242590  .00414007  62227-4  13881-2 0  9997
2 43690  85.0021 172.0636 0010167 177.8180 182.3145 15.89995436313754
SIRION PATHFINDER-2     
1 43759U 18099B   24178.14881646  .00005032  00000+0  37922-3 0  9990
2 43759  97.5290 234.0414 0008995 250.1643 109.8613 15.02884434303858
CORVUS BC4              
1 43767U 18099K   24178.58581022  .00004291  00000+0  33006-3 0  9997
2 43767  97.5087 231.6577 0009258 322.6187  37.4393 15.02179216303806
MOVE-II                 
1 43780U 18099Y   24178.59605167  .00024201  00000+0  12531-2 0  9992
2 43780  97.5201 241.4977 0004881 304.3270  55.7501 15.16194292304350
SPACEBEE-7              
1 43816U 18099BL  24178.60289133  .00015587  00000+0  91229-3 0  9994
2 43816  97.5469 242.1891 0008824 248.8846 111.1441 15.11892473303834
SPACEBEE-6              
1 43818U 18099BN  24178.60680531  .00038374  00000+0  15786-2 0  9995
2 43818  97.5392 247.7031 0007907 242.5811 117.4622 15.24014902304346
SHIELDS 1               
1 43850U 18104B   24178.81798452  .00016577  00000+0  43979-3 0  9990
2 43850  85.0233 276.5713 0011437  45.2623 314.9557 15.38108218307643
SONATE                  
1 44400U 19038Q   24178.46379057  .00021552  00000+0  64200-3 0  9995
2 44400  97.7121 172.9745 0017985  77.1410 283.1840 15.34552506275507
LUCKY-7                 
1 44406U 19038W   24178.95376600  .00044328  00000+0  93437-3 0  9996
2 44406  97.7014 177.7301 0014454  64.2728 296.0010 15.45006695275879
DUCHIFAT-3              
1 44854U 19089C   24178.86907801  .00018045  00000+0  90218-3 0  9993
2 44854  36.9580 350.2209 0004924 175.5895 184.4896 15.16745429249670
M2 PATHFINDER           
1 45727U 20037E   24178.94350243  .00003512  00000+0  30801-3 0  9994
2 45727  97.7768 355.3259 0012189  91.7131 268.5487 14.97235149217405
NETSAT-4                
1 46504U 20068U   24178.77792324  .00012340  00000+0  65512-3 0  9999
2 46504  97.8061 136.1781 0008835 341.4789  18.6119 15.15449802205629
